#cP2015  1 21  0  0  0.00000000      96 ORBIT IGb08 HLM  IGS
## 1828 259200.00000000   900.00000000 57043 0.0000000000000
+   31   G01G02G03G04G05G06G07G08G09G10G11G12G13G14G15G16G17
+        G18G19G20G21G22G23G24G25G27G28G29G30G31G32  0  0  0
+          0  0  0  0  0  0  0  0  0  0  0  0  0  0  0  0  0
+          0  0  0  0  0  0  0  0  0  0  0  0  0  0  0  0  0
+          0  0  0  0  0  0  0  0  0  0  0  0  0  0  0  0  0
++         2  2  2  2  2  2  2  3  2  2  2  2  2  2  2  2  2
++         2  2  2  2  2  2  2  2  2  2  3  3  2  2  0  0  0
++         0  0  0  0  0  0  0  0  0  0  0  0  0  0  0  0  0
++         0  0  0  0  0  0  0  0  0  0  0  0  0  0  0  0  0
++         0  0  0  0  0  0  0  0  0  0  0  0  0  0  0  0  0
%c G  cc GPS ccc cccc cccc cccc cccc ccccc ccccc ccccc ccccc
%c cc cc ccc ccc cccc cccc cccc cccc ccccc ccccc ccccc ccccc
%f  1.2500000  1.025000000  0.00000000000  0.000000000000000
%f  0.0000000  0.000000000  0.00000000000  0.000000000000000
%i    0    0    0    0      0      0      0      0         0
%i    0    0    0    0      0      0      0      0         0
/* FINAL ORBIT COMBINATION FROM WEIGHTED AVERAGE OF:        
/* cod emr esa gfz grg jpl mit ngs sio                      
/* REFERENCED TO IGS TIME (IGST) AND TO WEIGHTED MEAN POLE: 
/* PCV:IGS08_1822 OL/AL:FES2004  NONE     Y  ORB:CMB CLK:CMB
*  2015  1 21 23 15  0.00000000
PG01 -22584.291231 -13737.214175  -3446.196418     -9.922146  7  5  5 141       
PG02   3744.818053  17637.211907  19982.421630    543.251646  8  6  4 143       
PG03 -13056.970444 -15799.754442  16871.792004    163.237152  6  4  2 105       
PG04 -15778.494508 -17590.284690 -12699.704818     -5.996433  6  7  8 132       
PG05   2488.630446  26342.441743   -508.015571   -289.705541  8  4  3  82       
PG06 -11705.934249  10806.789597  21240.334044     58.243562  7  6  5 112       
PG07 -24536.763736  -5852.394504  -8775.527387    433.571565 12  8  9 113       
PG08  -4327.113720 -17950.650603  19523.474827     17.228911  8 10  8  56       
PG09 -22726.416192   4523.175054  12981.096604    -62.391386  7  6  2 116       
PG10 -10055.488518  18611.769646  15417.516974   -159.824948  6  4  6 152       
PG11 -19982.228540 -12639.467449 -12763.610619   -552.472909  7  7  6 120       
PG12  10545.018933  19169.059289  15135.982024    263.180654  7  6  7 119       
PG13  -3274.729868  17202.772273 -20157.457997    -80.975559  6  6  6 123       
PG14  20943.861740 -15629.937080   4522.551295     94.645994  9  6  5 122       
PG15  11614.205472  10989.415565 -21310.570843   -227.715911  8  3  7 128       
PG16   -689.625600 -26341.248125   -580.307919   -163.024003  6  6  5 130       
PG17 -21530.912124  15201.959692   2359.602461   -151.326757  9  9  7 108       
PG18  15334.580816  -4252.144801 -20771.016849    373.946231  5  7  7  85       
PG19  -5767.805163 -14049.666100 -21939.939426   -497.559036  9  6  7 120       
PG20 -15973.904017    220.083476  21067.260666    281.213365  5  6  7 111       
PG21  23436.822398   1005.411681 -12151.602299   -408.137487  9  6  8 119       
PG22  10792.825393 -17708.984401 -16283.637591    309.853999  7  8  5 135       
PG23 -17740.560032  -4853.962801  19437.327217    -83.351606  9  6  6 118       
PG24  21117.201217  14883.703970  -6492.846002    -42.188271  7  6  6 100       
PG25  14795.581986   5809.046015  21226.909917      1.695539  7  4  6 134       
PG27   5052.555115 -18678.353699 -18164.933772     45.952474  9  8  8 101       
PG28 -12385.967216  12999.655509 -18912.240402    414.078243  7  6  4 118       
PG29  21633.726757   -819.862654  15390.064106    587.361329  8  6  7 128       
PG30 -19971.366385   2542.978872 -17348.776261    -86.338004 10  9  9 103       
PG31   9450.715793 -11823.205975  21992.965996    324.984443  7  7  6 122       
PG32  -4837.996764 -25453.688886   7020.059322   -242.172941  6  3  4 120       
*  2015  1 21 23 30  0.00000000
PG01 -21992.035703 -13725.521378  -6223.900530     -9.921700  7  5  6 133       
PG02   1616.755672  16850.765966  20898.058691    543.253397  7  6  3 143       
PG03 -13074.133775 -17629.504762  14929.847725    163.258649  6  5  3  82       
PG04 -14290.186776 -17192.161839 -14852.786399     -5.997072  6  8  8 138       
PG05   2167.607185  26267.639829   2326.410679   -289.700927  8  5  4  96       
PG06 -13860.629891   9780.228402  20424.286535     58.253551  7  6  6 117       
PG07 -25228.475095  -6385.362494  -6087.789078    433.574477 12  8  9 128       
PG08  -2392.938991 -16817.981281  20781.845331     17.229759  8 11  9           
PG09 -21546.540354   3408.159252  15150.246503    -62.402078  6  6  3 108       
PG10 -10475.889758  16690.689700  17227.683967   -159.825131  6  4  6 155       
PG11 -18446.828031 -12827.674528 -14795.443331   -552.475168  8  7  5 113       
PG12  10522.414693  20777.274684  12892.927743    263.183603  6  6  7 125       
PG13  -5222.657772  18214.947123 -18813.131899    -80.978921  7  7  6 129       
PG14  21352.610608 -15597.329439   1673.626100     94.643157  9  7  5 120       
PG15   9711.113305  12508.874216 -21396.624339   -227.717928  9  3  7 136       
PG16   -483.560695 -26241.799433   2351.683282   -163.021509  7  7  5 129       
PG17 -21726.804308  15041.256142   -527.732668   -151.328597 10  9  8 116       
PG18  15671.693408  -1776.546501 -20903.827717    373.948823  7  6  8  93       
PG19  -3634.527340 -15261.945792 -21541.147010   -497.560243  9  6  7 125       
PG20 -16353.850972  -2184.475654  20671.596509    281.217072  6  6  7 112       
PG21  24560.610142   1782.123236  -9776.339951   -408.141140  9  6  8 111       
PG22  11261.470249 -15740.095229 -17902.884606    309.857570  7  9  6 126       
PG23 -15964.703979  -6243.374354  20518.760403    -83.354055  9  5  6 116       
PG24  20204.149700  14759.322881  -9138.304645    -42.189083  7  6  6 104       
PG25  14992.168581   8186.454082  20301.786046      1.693389  8  4  6 136       
PG27   6736.814903 -19728.004013 -16416.486715     45.954849  9  8  8 104       
PG28 -12573.286345  10646.880942 -20184.641212    414.080717  8  7  5 115       
PG29  20152.858193    323.276450  17306.882611    587.363596  8  6  7 131       
PG30 -21545.870508   1505.457647 -15490.081616    -86.337707 10  9 10 109       
PG31  11649.503399 -10742.542980  21513.340436    324.983805  7  7  7 122       
PG32  -4609.473201 -26100.231327   4322.297594   -242.164958  7  2  5 124       
*  2015  1 21 23 45  0.00000000
PG01 -21112.997124 -13635.705295  -8895.686062     -9.921258  7  6  6 134       
PG02   -629.251540  16144.646477  21467.287716    543.255587  7  7  3 143       
PG03 -13146.999425 -19224.893100  12730.527867    163.280130  6  5  4 100       
PG04 -12572.242674 -16791.650782 -16758.158156     -5.997354  7  8  8 129       
PG05   1788.661329  25893.999518   5120.334178   -289.696194  8  5  4  82       
PG06 -15960.775927   8906.702228  19256.404871     58.263542  7  6  7 112       
PG07 -25661.935535  -6763.867531  -3297.197343    433.577506 12  8  9 133       
PG08   -284.026997 -15742.644424  21693.693916     17.229060  9 12  9  35       
PG09 -20248.238661   2086.200550  17058.643627    -62.412702  6  6  5 110       
PG10 -11016.188157  14604.118061  18728.138350   -159.826555  7  5  6 154       
PG11 -16713.380815 -13073.206695 -16582.241875   -552.477512  9  7  5 111       
PG12  10558.828373  22118.383454  10429.472521    263.186429  6  6  7 123       
PG13  -6970.631514  19239.526316 -17150.185067    -80.981873  8  7  6 132       
PG14  21497.824896 -15397.483750  -1204.291294     94.639655  9  8  5 118       
PG15   7888.918263  14112.901261 -21116.955223   -227.720042  9  3  8 137       
PG16   -236.919284 -25821.965189   5242.226267   -163.018506  8  7  5 125       
PG17 -21669.772567  14691.369750  -3405.822214   -151.330599 11 10  8 123       
PG18  16118.167376    671.870871 -20661.372248    373.951316  8  6  9  87       
PG19  -1619.405905 -16552.193254 -20775.383565   -497.561505  9  7  7 129       
PG20 -16829.334018  -4504.112736  19915.730569    281.221046  6  7  7 114       
PG21  25455.575189   2402.945368  -7231.508978   -408.144964 10  6  9 115       
PG22  11848.208696 -13631.023338 -19207.161148    309.861248  7  9  6 124       
PG23 -14180.759909  -7788.142976  21254.055359    -83.356300 10  5  6 119       
PG24  19013.221434  14584.588791 -11627.841851    -42.189064  6  6  6 119       
PG25  15297.496147  10424.622118  19026.208548      1.691125  8  4  7 135       
PG27   8198.901911 -20728.415563 -14384.715543     45.957231  9  8  9  97       
PG28 -12902.057194   8179.571064 -21089.181662    414.083391  8  7  5 110       
PG29  18574.908669   1663.282808  18926.085506    587.365429  8  7  7 129       
PG30 -22967.324256    645.427840 -13365.372924    -86.337435 11  9 10 100       
PG31  13833.326844  -9814.337304  20670.103480    324.982836  7  8  7 123       
PG32  -4389.621952 -26453.337700   1552.544605   -242.156914  7  3  5 127       
EOF
